{
"type": "FeatureCollection",
"name": "schools",
"crs": { "type": "name", "properties": { "name": "urn:ogc:def:crs:OGC:1.3:CRS84" } },
"features": [
{ "type": "Feature", "properties": { "full_id": "n7030291029", "osm_id": "7030291029", "osm_type": "node", "amenity": "school", "entrance": null, "old_name": null, "addr:place": null, "addr:town": null, "addr:street": null, "addr:village": null, "start_date": "1983", "source:date": "2012", "ref": "113307", "population:pupils:2015": "45", "population:pupils:2012": "39", "operator:type": "public", "operator": "Viga East District of Catanduanes Schools Division, DepEd", "name": "Batohonan Elementary School", "isced:level": "0-1", "addr:province": "Catanduanes", "addr:municipality": "Viga" }, "geometry": { "type": "Point", "coordinates": [ 124.3544975, 13.9071151 ] } },
{ "type": "Feature", "properties": { "full_id": "n7030410272", "osm_id": "7030410272", "osm_type": "node", "amenity": "school", "entrance": null, "old_name": null, "addr:place": null, "addr:town": null, "addr:street": null, "addr:village": "Quirino", "start_date": "1971", "source:date": "2012", "ref": "113312", "population:pupils:2015": "47", "population:pupils:2012": "43", "operator:type": "public", "operator": "Viga East District of Catanduanes Schools Division, DepEd", "name": "Quirino Elementary School", "isced:level": "0-1", "addr:province": "Catanduanes", "addr:municipality": "Viga" }, "geometry": { "type": "Point", "coordinates": [ 124.3570536, 13.8795819 ] } },
{ "type": "Feature", "properties": { "full_id": "n7030626950", "osm_id": "7030626950", "osm_type": "node", "amenity": "school", "entrance": null, "old_name": null, "addr:place": null, "addr:town": null, "addr:street": "J. Aldea Street", "addr:village": null, "start_date": "1957", "source:date": "2012", "ref": "113351", "population:pupils:2015": "313", "population:pupils:2012": "283", "operator:type": "public", "operator": "Virac North District of Catanduanes Schools Division, DepEd", "name": "Taytay Elementary School", "isced:level": "0-1", "addr:province": "Catanduanes", "addr:municipality": "Virac" }, "geometry": { "type": "Point", "coordinates": [ 124.238677, 13.5832753 ] } },
{ "type": "Feature", "properties": { "full_id": "n7455683331", "osm_id": "7455683331", "osm_type": "node", "amenity": "school", "entrance": null, "old_name": null, "addr:place": null, "addr:town": "San Miguel", "addr:street": null, "addr:village": null, "start_date": "1952", "source:date": "2012", "ref": "113296", "population:pupils:2015": "74", "population:pupils:2012": "71", "operator:type": "public", "operator": "San Miguel North District of Catanduanes Schools Division, DepEd", "name": "Siay Elementary School", "isced:level": "0-1", "addr:province": "Catanduanes", "addr:municipality": null }, "geometry": { "type": "Point", "coordinates": [ 124.3008247, 13.6868841 ] } },
{ "type": "Feature", "properties": { "full_id": "n7461388360", "osm_id": "7461388360", "osm_type": "node", "amenity": "school", "entrance": null, "old_name": null, "addr:place": null, "addr:town": "San Miguel", "addr:street": null, "addr:village": null, "start_date": "1970", "source:date": "2012", "ref": "113297", "population:pupils:2015": "126", "population:pupils:2012": "111", "operator:type": "public", "operator": "San Miguel North District of Catanduanes Schools Division, DepEd", "name": "Tobrehon Elementary School", "isced:level": "0-1", "addr:province": "Catanduanes", "addr:municipality": null }, "geometry": { "type": "Point", "coordinates": [ 124.2448402, 13.7297191 ] } },
{ "type": "Feature", "properties": { "full_id": "n7461543625", "osm_id": "7461543625", "osm_type": "node", "amenity": "school", "entrance": null, "old_name": null, "addr:place": null, "addr:town": "San Miguel", "addr:street": "Quirino Highway", "addr:village": null, "start_date": "1956", "source:date": "2012", "ref": "113294", "population:pupils:2015": "34", "population:pupils:2012": "31", "operator:type": "public", "operator": "San Miguel North District of Catanduanes Schools Division, DepEd", "name": "Paraiso B Elementary School", "isced:level": "1", "addr:province": "Catanduanes", "addr:municipality": null }, "geometry": { "type": "Point", "coordinates": [ 124.2709639, 13.7547667 ] } },
{ "type": "Feature", "properties": { "full_id": "n7576739598", "osm_id": "7576739598", "osm_type": "node", "amenity": "school", "entrance": null, "old_name": "Aroyao Elementary School", "addr:place": "San Juan", "addr:town": "San Miguel", "addr:street": null, "addr:village": null, "start_date": "2008", "source:date": "2012", "ref": "113304", "population:pupils:2015": "134", "population:pupils:2012": "118", "operator:type": "public", "operator": "San Miguel South District of Catanduanes Schools Division, DepEd", "name": "San Juan Elementary School", "isced:level": "0-1", "addr:province": "Catanduanes", "addr:municipality": null }, "geometry": { "type": "Point", "coordinates": [ 124.3104997, 13.6360641 ] } },
{ "type": "Feature", "properties": { "full_id": "n7597585708", "osm_id": "7597585708", "osm_type": "node", "amenity": "school", "entrance": null, "old_name": null, "addr:place": null, "addr:town": "Pandan", "addr:street": "Del Carmen Street", "addr:village": "San Isidro", "start_date": "1955", "source:date": "2012", "ref": "113231", "population:pupils:2015": "78", "population:pupils:2012": "71", "operator:type": "public", "operator": "Pandan East District of Catanduanes Schools Division, DepEd", "name": "San Isidro Elementary School", "isced:level": "0-1", "addr:province": "Catanduanes", "addr:municipality": null }, "geometry": { "type": "Point", "coordinates": [ 124.2073989, 14.0151771 ] } },
{ "type": "Feature", "properties": { "full_id": "n7597714890", "osm_id": "7597714890", "osm_type": "node", "amenity": "school", "entrance": null, "old_name": null, "addr:place": null, "addr:town": "San Andres", "addr:street": null, "addr:village": "San Vicente", "start_date": "2004", "source:date": "2012", "ref": "113282", "population:pupils:2015": "41", "population:pupils:2012": "35", "operator:type": "public", "operator": "San Andres West District of Catanduanes Schools Division, DepEd", "name": "San Vicente Elementary School", "isced:level": "0-1", "addr:province": "Catanduanes", "addr:municipality": null }, "geometry": { "type": "Point", "coordinates": [ 124.0836312, 13.6297398 ] } },
{ "type": "Feature", "properties": { "full_id": "n8736384596", "osm_id": "8736384596", "osm_type": "node", "amenity": "school", "entrance": null, "old_name": null, "addr:place": null, "addr:town": "Pandan", "addr:street": "Evaristo Street", "addr:village": null, "start_date": "1954", "source:date": "2012", "ref": "113236", "population:pupils:2015": "212", "population:pupils:2012": "176", "operator:type": "public", "operator": "Pandan West District of Catanduanes Schools Division, DepEd", "name": "Cobo Elementary School", "isced:level": "0-1", "addr:province": "Catanduanes", "addr:municipality": null }, "geometry": { "type": "Point", "coordinates": [ 124.1700023, 14.0459587 ] } },
{ "type": "Feature", "properties": { "full_id": "n8916096954", "osm_id": "8916096954", "osm_type": "node", "amenity": null, "entrance": "main", "old_name": null, "addr:place": null, "addr:town": null, "addr:street": null, "addr:village": null, "start_date": null, "source:date": null, "ref": null, "population:pupils:2015": null, "population:pupils:2012": null, "operator:type": null, "operator": null, "name": null, "isced:level": null, "addr:province": null, "addr:municipality": null }, "geometry": { "type": "Point", "coordinates": [ 124.2636636, 13.8107263 ] } },
{ "type": "Feature", "properties": { "full_id": "n9287480558", "osm_id": "9287480558", "osm_type": "node", "amenity": "school", "entrance": null, "old_name": null, "addr:place": "Salvacion", "addr:town": "San Miguel", "addr:street": null, "addr:village": null, "start_date": "1996", "source:date": "2012", "ref": "113303", "population:pupils:2015": "85", "population:pupils:2012": "71", "operator:type": "public", "operator": "San Miguel South District of Catanduanes Schools Division, DepEd", "name": "Patagan Elementary School", "isced:level": "0-1", "addr:province": "Catanduanes", "addr:municipality": null }, "geometry": { "type": "Point", "coordinates": [ 124.3208277, 13.665381 ] } }
]
}
